ONEWEB-0634             
1 56075U 23043AF  25320.49260902  .00000062  00000+0  13131-3 0  9998
2 56075  87.8969 301.6752 0001889  75.9752 284.1588 13.15547025128434
ONEWEB-0635             
1 56076U 23043AG  25320.71603483  .00000218  00000+0  54442-3 0  9992
2 56076  87.8959 301.5859 0001717  94.4529 265.6797 13.15548696128496
ONEWEB-0636             
1 56077U 23043AH  25320.70811385  .00000048  00000+0  94447-4 0  9995
2 56077  87.8956 301.6053 0001753  93.0961 267.0370 13.15549001128478
ONEWEB-0637             
1 56078U 23043AJ  25320.70177339  .00000236  00000+0  59169-3 0  9990
2 56078  87.8962 301.6221 0001593  84.0850 276.0462 13.15547377128490
ONEWEB-0647             
1 56079U 23043AK  25320.69701003  .00000187  00000+0  46133-3 0  9992
2 56079  87.8961 301.6365 0001934  92.0637 268.0715 13.15547402128480
ONEWEB-0651             
1 56080U 23043AL  25320.69226850  .00000000  00000+0 -34665-4 0  9999
2 56080  87.8963 301.6301 0001611  91.0935 269.0380 13.15547785129682
ONEWEB-0718             
1 56081U 23043AM  25320.45932103  .00000172  00000+0  42199-3 0  9998
2 56081  87.8961 301.6572 0002009  71.5620 288.5729 13.15546218128465
ONEWEB-0561             
1 56710U 23068A   25320.69998912  .00000105  00000+0  22698-3 0  9998
2 56710  87.9176 316.8296 0001902 104.2562 255.8783 13.20772315121458
